      2.10          N: GNSS NAV DATA                        RINEX VERSION / TYPE
fic2rin                                 03/12/2019 00:19:15 PGM / RUN BY / DATE
                                                            END OF HEADER
23 19  3 11 12  0  0.0-1.944247633219e-04 1.364242052659e-12 0.000000000000e+00
    8.800000000000e+01 2.406250000000e+00 4.985921969377e-09 1.295837019007e+00
    2.719461917877e-07 1.290738629177e-02 1.139566302299e-05 5.153630578995e+03
    1.296000000000e+05-1.918524503708e-07 4.699992502239e-01 1.620501279831e-07
    9.437099967608e-01 1.574375000000e+02-2.290137528826e+00-8.332847096529e-09
   -3.042983895351e-10 1.000000000000e+00 2.044000000000e+03 0.000000000000e+00
    2.400000000000e+00 0.000000000000e+00-2.002343535423e-08 8.800000000000e+01
    1.224000000000e+05 4.000000000000e+00
13 19  3 11 12  0  0.0-7.210765033960e-05 1.364242052659e-12 0.000000000000e+00
    7.100000000000e+01 1.400000000000e+01 4.326965949786e-09 1.618624919276e+00
    6.780028343201e-07 3.680419176817e-03 1.179613173008e-05 5.153667264938e+03
    1.296000000000e+05-5.774199962616e-08 6.103854129339e-01-1.173466444016e-07
    9.683278841832e-01 1.551250000000e+02 1.356889315681e+00-7.832469110920e-09
   -1.903650723265e-10 1.000000000000e+00 2.044000000000e+03 0.000000000000e+00
    2.400000000000e+00 0.000000000000e+00-1.117587089539e-08 7.100000000000e+01
    1.224000000000e+05 4.000000000000e+00
19 19  3 11 12  0  0.0-3.435323014855e-04 4.206412995700e-12 0.000000000000e+00
    1.030000000000e+02-4.300000000000e+01 3.783371878339e-09-8.216527434434e-01
   -2.020969986916e-06 9.422371746041e-03 1.106411218643e-05 5.153629404068e+03
    1.296000000000e+05-5.401670932770e-08-2.554153502791e+00 1.341104507446e-07
    9.818701504900e-01 1.797500000000e+02 1.354801023529e+00-7.848184051225e-09
    8.071764792831e-11 1.000000000000e+00 2.044000000000e+03 0.000000000000e+00
    3.400000000000e+00 0.000000000000e+00-1.536682248116e-08 1.030000000000e+02
    1.224000000000e+05 4.000000000000e+00
11 19  3 11 12  0  0.0-6.469092331827e-04 6.480149750132e-12 0.000000000000e+00
    8.700000000000e+01 1.500000000000e+01 5.684165339731e-09-1.671900535082e-01
    6.370246410370e-07 1.653665397316e-02 9.477138519287e-06 5.153690738678e+03
    1.296000000000e+05-2.961605787277e-07-2.046572067050e+00-1.341104507446e-07
    9.085260328303e-01 1.724375000000e+02 1.868801085489e+00-8.882512849457e-09
    4.110885520597e-10 1.000000000000e+00 2.044000000000e+03 0.000000000000e+00
    2.400000000000e+00 0.000000000000e+00-1.210719347000e-08 8.700000000000e+01
    1.224000000000e+05 4.000000000000e+00
17 19  3 11 12  0  0.0 2.180086448789e-05 5.570655048359e-12 0.000000000000e+00
    5.500000000000e+01-5.250000000000e+01 3.585149335860e-09 2.652106652830e+00
   -2.633780241013e-06 1.292483811267e-02 1.078844070435e-05 5.153712833405e+03
    1.296000000000e+05 1.359730958939e-07-2.600539347908e+00-5.774199962616e-08
    9.841275632861e-01 1.793125000000e+02-1.716760013900e+00-7.417094666050e-09
   -4.178745490094e-11 1.000000000000e+00 2.044000000000e+03 0.000000000000e+00
    2.400000000000e+00 0.000000000000e+00-1.117587089539e-08 5.500000000000e+01
    1.224000000000e+05 4.000000000000e+00
18 19  3 11 12  0  0.0 3.379769623280e-05 3.637978807092e-12 0.000000000000e+00
    7.700000000000e+01 3.325000000000e+01 4.862345393345e-09 2.974083079755e-01
    1.570209860802e-06 1.509090478066e-02 7.871538400650e-06 5.153722948074e+03
    1.296000000000e+05-2.607703208923e-07-1.654070792356e+00 1.117587089539e-08
    9.528686890228e-01 2.264062500000e+02 1.377917974557e+00-8.512854594564e-09
    4.010881355022e-10 1.000000000000e+00 2.044000000000e+03 0.000000000000e+00
    2.400000000000e+00 0.000000000000e+00-6.053596735001e-09 7.700000000000e+01
    1.224000000000e+05 4.000000000000e+00
10 19  3 11 12  0  0.0 9.966595098376e-05-8.412825991400e-12 0.000000000000e+00
    1.190000000000e+02-3.628125000000e+01 4.849130557180e-09-1.527555103087e+00
   -1.953914761543e-06 4.403989296407e-03 5.496665835381e-06 5.153659420013e+03
    1.296000000000e+05 6.519258022308e-08-5.610238520039e-01 1.490116119385e-08
    9.626735097758e-01 2.723750000000e+02-2.726386480689e+00-8.268558704374e-09
   -3.107272287506e-11 1.000000000000e+00 2.044000000000e+03 0.000000000000e+00
    3.400000000000e+00 0.000000000000e+00 1.862645149231e-09 1.190000000000e+02
    1.224000000000e+05 4.000000000000e+00
12 19  3 11 12  0  0.0 2.610841766000e-04-3.296918293927e-12 0.000000000000e+00
    9.000000000000e+01-2.606250000000e+01 4.300536277455e-09-8.127580376746e-01
   -1.328065991402e-06 7.548299501650e-03 4.414469003677e-06 5.153681053162e+03
    1.296000000000e+05-7.450580596924e-09 2.649741959863e+00 1.862645149231e-07
    9.837238959117e-01 3.058125000000e+02 1.044203388474e+00-8.245700609385e-09
   -2.725113511916e-10 1.000000000000e+00 2.044000000000e+03 0.000000000000e+00
    2.400000000000e+00 0.000000000000e+00-1.257285475731e-08 9.000000000000e+01
    1.224000000000e+05 4.000000000000e+00
29 19  3 11 12  0  0.0 2.519008703530e-04-8.867573342286e-12 0.000000000000e+00
    7.700000000000e+01-4.762500000000e+01 3.709440227361e-09-2.737185641009e+00
   -2.438202500343e-06 7.775898557156e-04 1.013092696667e-05 5.153555929184e+03
    1.296000000000e+05-5.215406417847e-08-2.589524879694e+00-7.078051567078e-08
    9.855471555835e-01 1.980937500000e+02 1.445866020866e+00-7.621031732276e-09
   -1.892935991239e-11 1.000000000000e+00 2.044000000000e+03 0.000000000000e+00
    2.400000000000e+00 0.000000000000e+00-1.024454832077e-08 7.700000000000e+01
    1.224000000000e+05 4.000000000000e+00
26 19  3 11 12  0  0.0 1.462739892304e-04 1.011812855722e-11 0.000000000000e+00
    4.200000000000e+01-2.715625000000e+01 4.832344143673e-09-1.801993780274e+00
   -1.421198248863e-06 3.693685168400e-03 4.053115844727e-06 5.153567396164e+03
    1.296000000000e+05-5.587935447693e-09 2.559246766192e+00-2.793967723846e-08
    9.524690490619e-01 2.983437500000e+02 1.314246337692e-01-8.428922527028e-09
   -1.842933908452e-10 1.000000000000e+00 2.044000000000e+03 0.000000000000e+00
    2.400000000000e+00 0.000000000000e+00 7.450580596924e-09 4.200000000000e+01
    1.224000000000e+05 4.000000000000e+00
30 19  3 11 12  0  0.0-6.656674668193e-05-6.593836587854e-12 0.000000000000e+00
    1.100000000000e+02 8.675000000000e+01 5.068425405977e-09-6.518560639644e-02
    4.282221198082e-06 3.745815833099e-03 6.431713700294e-06 5.153618904114e+03
    1.296000000000e+05 5.774199962616e-08 1.580226675630e+00 3.352761268616e-08
    9.412513347133e-01 2.432812500000e+02-3.021210956420e+00-8.523569326590e-09
    1.146476326769e-10 1.000000000000e+00 2.044000000000e+03 0.000000000000e+00
    3.400000000000e+00 0.000000000000e+00 3.725290298462e-09 1.100000000000e+02
    1.224000000000e+05 4.000000000000e+00
32 19  3 11 12  0  0.0-1.865401864052e-04 1.864464138635e-11 0.000000000000e+00
    6.200000000000e+01-6.500000000000e+00 4.526974280935e-09-2.861391059326e+00
   -3.036111593246e-07 2.698977710679e-03 1.115910708904e-05 5.153768081665e+03
    1.296000000000e+05-3.911554813385e-08 4.807125606591e-01-6.146728992462e-08
    9.571785407740e-01 1.617187500000e+02-2.597407895687e+00-7.941045062116e-09
   -2.239378993409e-10 1.000000000000e+00 2.044000000000e+03 0.000000000000e+00
    2.400000000000e+00 0.000000000000e+00 4.656612873077e-10 6.200000000000e+01
    1.224000000000e+05 4.000000000000e+00
31 19  3 11 12  0  0.0 5.294056609273e-05-2.728484105319e-12 0.000000000000e+00
    8.000000000000e+01 7.087500000000e+01 4.622335395966e-09-4.793298324344e-01
    3.699213266373e-06 9.227587142959e-03 6.493180990219e-06 5.153577903748e+03
    1.296000000000e+05 1.378357410431e-07 1.564636359122e+00-6.332993507385e-08
    9.603354346027e-01 2.550937500000e+02-7.386369934813e-03-8.306060266464e-09
    1.400058318049e-10 1.000000000000e+00 2.044000000000e+03 0.000000000000e+00
    2.400000000000e+00 0.000000000000e+00-1.350417733192e-08 8.000000000000e+01
    1.224000000000e+05 4.000000000000e+00
 4 19  3 11 12  0  0.0 1.313360407948e-04 7.503331289627e-12 0.000000000000e+00
    6.400000000000e+01 9.343750000000e+00 4.484472510566e-09-1.942612428462e-02
    5.830079317093e-07 3.247781423852e-04 1.137144863605e-05 5.153809955597e+03
    1.296000000000e+05 7.823109626770e-08 5.189777826278e-01-5.587935447693e-08
    9.602498977826e-01 1.583125000000e+02-1.755872079646e+00-7.980689570611e-09
   -2.364384200378e-10 1.000000000000e+00 2.044000000000e+03 0.000000000000e+00
    6.850000000000e+00 6.300000000000e+01-8.847564458847e-09 8.320000000000e+02
    1.224300000000e+05 4.000000000000e+00
16 19  3 11 11 59 44.0-2.464745193720e-05-2.614797267597e-12 0.000000000000e+00
    0.000000000000e+00-3.978125000000e+01 4.087313110140e-09-2.734931044330e+00
   -2.074986696243e-06 1.067746488843e-02 4.766508936882e-06 5.153788745880e+03
    1.295840000000e+05 3.725290298462e-09 2.668650127761e+00-1.657754182816e-07
    9.841031852192e-01 3.008750000000e+02 5.515781044935e-01-7.946402428129e-09
   -2.335811581642e-10 1.000000000000e+00 2.044000000000e+03 0.000000000000e+00
    2.400000000000e+00 0.000000000000e+00-1.071020960808e-08 0.000000000000e+00
    1.242000000000e+05 4.000000000000e+00
19 19  3 11 11 59 44.0-3.435323014855e-04 4.206412995700e-12 0.000000000000e+00
    3.400000000000e+01-4.300000000000e+01 3.783371878339e-09-8.239865995607e-01
   -2.020969986916e-06 9.422374423593e-03 1.106224954128e-05 5.153629405975e+03
    1.295840000000e+05-5.401670932770e-08-2.554153369666e+00 1.341104507446e-07
    9.818701490271e-01 1.797500000000e+02 1.354801046936e+00-7.848541208959e-09
    8.036049019412e-11 1.000000000000e+00 2.044000000000e+03 0.000000000000e+00
    2.400000000000e+00 0.000000000000e+00-1.536682248116e-08 3.400000000000e+01
    1.242000000000e+05 4.000000000000e+00
